CCSDS_OMM_VERS = 2.0
CREATION_DATE  = 
ORIGINATOR     = 

OBJECT_NAME    = STARLINK-35939
OBJECT_ID      = 2025-268AD
CENTER_NAME    = EARTH
REF_FRAME      = TEME
TIME_SYSTEM    = UTC
MEAN_ELEMENT_THEORY = SGP/SGP4

EPOCH          = 2025-12-10T14:00:03.000384
MEAN_MOTION    = 15.50631564
ECCENTRICITY   = .00016838
INCLINATION    = 43.0001
RA_OF_ASC_NODE = 133.6811
ARG_OF_PERICENTER = 265.7029
MEAN_ANOMALY   = 73.2722

EPHEMERIS_TYPE = 0
CLASSIFICATION_TYPE = U
NORAD_CAT_ID   = 66584
ELEMENT_SET_NO = 999
REV_AT_EPOCH   = 432
BSTAR          = -.23615815E-2
MEAN_MOTION_DOT = -.136751E-2
MEAN_MOTION_DDOT = 0

CCSDS_OMM_VERS = 2.0
CREATION_DATE  = 
ORIGINATOR     = 

OBJECT_NAME    = STARLINK-35963
OBJECT_ID      = 2025-268AE
CENTER_NAME    = EARTH
REF_FRAME      = TEME
TIME_SYSTEM    = UTC
MEAN_ELEMENT_THEORY = SGP/SGP4

EPOCH          = 2025-12-10T14:00:03.000384
MEAN_MOTION    = 15.50628916
ECCENTRICITY   = .00014717
INCLINATION    = 43.0002
RA_OF_ASC_NODE = 133.6765
ARG_OF_PERICENTER = 263.5252
MEAN_ANOMALY   = 77.3658

EPHEMERIS_TYPE = 0
CLASSIFICATION_TYPE = U
NORAD_CAT_ID   = 66585
ELEMENT_SET_NO = 999
REV_AT_EPOCH   = 432
BSTAR          = -.22573412E-2
MEAN_MOTION_DOT = -.130813E-2
MEAN_MOTION_DDOT = 0

CCSDS_OMM_VERS = 2.0
CREATION_DATE  = 
ORIGINATOR     = 

OBJECT_NAME    = TJS-21
OBJECT_ID      = 2025-269A
CENTER_NAME    = EARTH
REF_FRAME      = TEME
TIME_SYSTEM    = UTC
MEAN_ELEMENT_THEORY = SGP/SGP4

EPOCH          = 2025-12-09T17:35:27.978144
MEAN_MOTION    = 2.00565752
ECCENTRICITY   = .68056573
INCLINATION    = 63.2680
RA_OF_ASC_NODE = 162.6671
ARG_OF_PERICENTER = 269.7843
MEAN_ANOMALY   = 18.6559

EPHEMERIS_TYPE = 0
CLASSIFICATION_TYPE = U
NORAD_CAT_ID   = 66586
ELEMENT_SET_NO = 999
REV_AT_EPOCH   = 37
BSTAR          = -.41606579E-1
MEAN_MOTION_DOT = .108E-4
MEAN_MOTION_DDOT = 0

CCSDS_OMM_VERS = 2.0
CREATION_DATE  = 
ORIGINATOR     = 

OBJECT_NAME    = CZ-3B R/B
OBJECT_ID      = 2025-269B
CENTER_NAME    = EARTH
REF_FRAME      = TEME
TIME_SYSTEM    = UTC
MEAN_ELEMENT_THEORY = SGP/SGP4

EPOCH          = 2025-12-08T20:16:41.011968
MEAN_MOTION    = 2.02868797
ECCENTRICITY   = .75197721
INCLINATION    = 51.3469
RA_OF_ASC_NODE = 170.5472
ARG_OF_PERICENTER = 228.0184
MEAN_ANOMALY   = 37.9661

EPHEMERIS_TYPE = 0
CLASSIFICATION_TYPE = U
NORAD_CAT_ID   = 66587
ELEMENT_SET_NO = 999
REV_AT_EPOCH   = 37
BSTAR          = .12608329E-2
MEAN_MOTION_DOT = .50405E-3
MEAN_MOTION_DDOT = .422103E-6

CCSDS_OMM_VERS = 2.0
CREATION_DATE  = 
ORIGINATOR     = 

OBJECT_NAME    = STARLINK-36076
OBJECT_ID      = 2025-270A
CENTER_NAME    = EARTH
REF_FRAME      = TEME
TIME_SYSTEM    = UTC
MEAN_ELEMENT_THEORY = SGP/SGP4

EPOCH          = 2025-12-10T14:00:03.000384
MEAN_MOTION    = 15.50668506
ECCENTRICITY   = .0001645
INCLINATION    = 42.9998
RA_OF_ASC_NODE = 205.3477
ARG_OF_PERICENTER = 236.9923
MEAN_ANOMALY   = 338.8015

EPHEMERIS_TYPE = 0
CLASSIFICATION_TYPE = U
NORAD_CAT_ID   = 66588
ELEMENT_SET_NO = 999
REV_AT_EPOCH   = 405
BSTAR          = -.32535117E-2
MEAN_MOTION_DOT = -.187317E-2
MEAN_MOTION_DDOT = 0

CCSDS_OMM_VERS = 2.0
CREATION_DATE  = 
ORIGINATOR     = 

OBJECT_NAME    = STARLINK-35447
OBJECT_ID      = 2025-270B
CENTER_NAME    = EARTH
REF_FRAME      = TEME
TIME_SYSTEM    = UTC
MEAN_ELEMENT_THEORY = SGP/SGP4

EPOCH          = 2025-12-10T14:00:03.000384
MEAN_MOTION    = 15.50695468
ECCENTRICITY   = .0001991
INCLINATION    = 42.9997
RA_OF_ASC_NODE = 205.3387
ARG_OF_PERICENTER = 259.4217
MEAN_ANOMALY   = 320.2161

EPHEMERIS_TYPE = 0
CLASSIFICATION_TYPE = U
NORAD_CAT_ID   = 66589
ELEMENT_SET_NO = 999
REV_AT_EPOCH   = 416
BSTAR          = -.40914525E-2
MEAN_MOTION_DOT = -.234317E-2
MEAN_MOTION_DDOT = 0

CCSDS_OMM_VERS = 2.0
CREATION_DATE  = 
ORIGINATOR     = 

OBJECT_NAME    = STARLINK-35429
OBJECT_ID      = 2025-270C
CENTER_NAME    = EARTH
REF_FRAME      = TEME
TIME_SYSTEM    = UTC
MEAN_ELEMENT_THEORY = SGP/SGP4

EPOCH          = 2025-12-10T14:00:03.000384
MEAN_MOTION    = 15.50697393
ECCENTRICITY   = .00020198
INCLINATION    = 42.9997
RA_OF_ASC_NODE = 205.3437
ARG_OF_PERICENTER = 258.7813
MEAN_ANOMALY   = 318.9384

EPHEMERIS_TYPE = 0
CLASSIFICATION_TYPE = U
NORAD_CAT_ID   = 66590
ELEMENT_SET_NO = 999
REV_AT_EPOCH   = 416
BSTAR          = -.41364563E-2
MEAN_MOTION_DOT = -.236833E-2
MEAN_MOTION_DDOT = 0

CCSDS_OMM_VERS = 2.0
CREATION_DATE  = 
ORIGINATOR     = 

OBJECT_NAME    = STARLINK-36058
OBJECT_ID      = 2025-270D
CENTER_NAME    = EARTH
REF_FRAME      = TEME
TIME_SYSTEM    = UTC
MEAN_ELEMENT_THEORY = SGP/SGP4

EPOCH          = 2025-12-10T14:00:03.000384
MEAN_MOTION    = 15.50690631
ECCENTRICITY   = .00019166
INCLINATION    = 42.9998
RA_OF_ASC_NODE = 205.3339
ARG_OF_PERICENTER = 262.1833
MEAN_ANOMALY   = 319.3730

EPHEMERIS_TYPE = 0
CLASSIFICATION_TYPE = U
NORAD_CAT_ID   = 66591
ELEMENT_SET_NO = 999
REV_AT_EPOCH   = 405
BSTAR          = -.39434918E-2
MEAN_MOTION_DOT = -.22605E-2
MEAN_MOTION_DDOT = 0

CCSDS_OMM_VERS = 2.0
CREATION_DATE  = 
ORIGINATOR     = 

OBJECT_NAME    = STARLINK-36066
OBJECT_ID      = 2025-270E
CENTER_NAME    = EARTH
REF_FRAME      = TEME
TIME_SYSTEM    = UTC
MEAN_ELEMENT_THEORY = SGP/SGP4

EPOCH          = 2025-12-10T14:00:03.000384
MEAN_MOTION    = 15.50693722
ECCENTRICITY   = .00019064
INCLINATION    = 42.9995
RA_OF_ASC_NODE = 205.3294
ARG_OF_PERICENTER = 256.2643
MEAN_ANOMALY   = 327.2074

EPHEMERIS_TYPE = 0
CLASSIFICATION_TYPE = U
NORAD_CAT_ID   = 66592
ELEMENT_SET_NO = 999
REV_AT_EPOCH   = 395
BSTAR          = -.40180461E-2
MEAN_MOTION_DOT = -.230221E-2
MEAN_MOTION_DDOT = 0

CCSDS_OMM_VERS = 2.0
CREATION_DATE  = 
ORIGINATOR     = 

OBJECT_NAME    = STARLINK-36031
OBJECT_ID      = 2025-270F
CENTER_NAME    = EARTH
REF_FRAME      = TEME
TIME_SYSTEM    = UTC
MEAN_ELEMENT_THEORY = SGP/SGP4

EPOCH          = 2025-12-10T14:00:03.000384
MEAN_MOTION    = 15.50668438
ECCENTRICITY   = .00015973
INCLINATION    = 43.0000
RA_OF_ASC_NODE = 205.3236
ARG_OF_PERICENTER = 240.0010
MEAN_ANOMALY   = 345.3907

EPHEMERIS_TYPE = 0
CLASSIFICATION_TYPE = U
NORAD_CAT_ID   = 66593
ELEMENT_SET_NO = 999
REV_AT_EPOCH   = 405
BSTAR          = -.3736273E-2
MEAN_MOTION_DOT = -.214327E-2
MEAN_MOTION_DDOT = 0

CCSDS_OMM_VERS = 2.0
CREATION_DATE  = 
ORIGINATOR     = 

OBJECT_NAME    = STARLINK-36032
OBJECT_ID      = 2025-270G
CENTER_NAME    = EARTH
REF_FRAME      = TEME
TIME_SYSTEM    = UTC
MEAN_ELEMENT_THEORY = SGP/SGP4

EPOCH          = 2025-12-10T14:00:03.000384
MEAN_MOTION    = 15.50692925
ECCENTRICITY   = .0001946
INCLINATION    = 42.9996
RA_OF_ASC_NODE = 205.3197
ARG_OF_PERICENTER = 256.3006
MEAN_ANOMALY   = 331.0052

EPHEMERIS_TYPE = 0
CLASSIFICATION_TYPE = U
NORAD_CAT_ID   = 66594
ELEMENT_SET_NO = 999
REV_AT_EPOCH   = 379
BSTAR          = -.39978099E-2
MEAN_MOTION_DOT = -.22909E-2
MEAN_MOTION_DDOT = 0

CCSDS_OMM_VERS = 2.0
CREATION_DATE  = 
ORIGINATOR     = 

OBJECT_NAME    = STARLINK-35711
OBJECT_ID      = 2025-270H
CENTER_NAME    = EARTH
REF_FRAME      = TEME
TIME_SYSTEM    = UTC
MEAN_ELEMENT_THEORY = SGP/SGP4

EPOCH          = 2025-12-10T14:00:03.000384
MEAN_MOTION    = 15.50625031
ECCENTRICITY   = .00015644
INCLINATION    = 42.9998
RA_OF_ASC_NODE = 205.3135
ARG_OF_PERICENTER = 233.1868
MEAN_ANOMALY   = 356.0855

EPHEMERIS_TYPE = 0
CLASSIFICATION_TYPE = U
NORAD_CAT_ID   = 66595
ELEMENT_SET_NO = 999
REV_AT_EPOCH   = 416
BSTAR          = -.35604913E-2
MEAN_MOTION_DOT = -.204203E-2
MEAN_MOTION_DDOT = 0

CCSDS_OMM_VERS = 2.0
CREATION_DATE  = 
ORIGINATOR     = 

OBJECT_NAME    = STARLINK-35811
OBJECT_ID      = 2025-270J
CENTER_NAME    = EARTH
REF_FRAME      = TEME
TIME_SYSTEM    = UTC
MEAN_ELEMENT_THEORY = SGP/SGP4

EPOCH          = 2025-12-10T14:00:03.000384
MEAN_MOTION    = 15.50675191
ECCENTRICITY   = .00020853
INCLINATION    = 42.9996
RA_OF_ASC_NODE = 205.3097
ARG_OF_PERICENTER = 257.1192
MEAN_ANOMALY   = 334.0312

EPHEMERIS_TYPE = 0
CLASSIFICATION_TYPE = U
NORAD_CAT_ID   = 66596
ELEMENT_SET_NO = 999
REV_AT_EPOCH   = 416
BSTAR          = -.35520917E-2
MEAN_MOTION_DOT = -.204105E-2
MEAN_MOTION_DDOT = 0

CCSDS_OMM_VERS = 2.0
CREATION_DATE  = 
ORIGINATOR     = 

OBJECT_NAME    = STARLINK-35820
OBJECT_ID      = 2025-270K
CENTER_NAME    = EARTH
REF_FRAME      = TEME
TIME_SYSTEM    = UTC
MEAN_ELEMENT_THEORY = SGP/SGP4

EPOCH          = 2025-12-10T14:00:03.000384
MEAN_MOTION    = 15.50687780
ECCENTRICITY   = .00018185
INCLINATION    = 42.9996
RA_OF_ASC_NODE = 205.3046
ARG_OF_PERICENTER = 253.9445
MEAN_ANOMALY   = 339.1138

EPHEMERIS_TYPE = 0
CLASSIFICATION_TYPE = U
NORAD_CAT_ID   = 66597
ELEMENT_SET_NO = 999
REV_AT_EPOCH   = 416
BSTAR          = -.38338803E-2
MEAN_MOTION_DOT = -.21992E-2
MEAN_MOTION_DDOT = 0

CCSDS_OMM_VERS = 2.0
CREATION_DATE  = 
ORIGINATOR     = 

OBJECT_NAME    = STARLINK-35981
OBJECT_ID      = 2025-270L
CENTER_NAME    = EARTH
REF_FRAME      = TEME
TIME_SYSTEM    = UTC
MEAN_ELEMENT_THEORY = SGP/SGP4

EPOCH          = 2025-12-10T14:00:03.000384
MEAN_MOTION    = 15.50668243
ECCENTRICITY   = .00016134
INCLINATION    = 42.9998
RA_OF_ASC_NODE = 205.2993
ARG_OF_PERICENTER = 243.1539
MEAN_ANOMALY   = 351.8240

EPHEMERIS_TYPE = 0
CLASSIFICATION_TYPE = U
NORAD_CAT_ID   = 66598
ELEMENT_SET_NO = 999
REV_AT_EPOCH   = 389
BSTAR          = -.37031271E-2
MEAN_MOTION_DOT = -.212477E-2
MEAN_MOTION_DDOT = 0

